ONEWEB-0514             
1 54132U 22138V   25307.54172032  .00000048  00000+0  87050-4 0  9997
2 54132  87.9238 349.8577 0001802  93.9689 266.1650 13.19725596147064
ONEWEB-0515             
1 54133U 22138W   25307.74241664  .00000137  00000+0  30455-3 0  9993
2 54133  87.9193 319.3833 0002414  72.8474 287.2924 13.20772227149548
ONEWEB-0516             
1 54134U 22138X   25306.15174311 -.00000014  00000+0 -68091-4 0  9996
2 54134  87.9225 350.1573 0001998  98.9288 261.2071 13.19726199146881
ONEWEB-0517             
1 54135U 22138Y   25306.35865953  .00000040  00000+0  68570-4 0  9997
2 54135  87.9249 350.0897 0001592  98.8328 261.2985 13.19725446146912
ONEWEB-0518             
1 54136U 22138Z   25306.15016539  .00000064  00000+0  12685-3 0  9995
2 54136  87.9228 350.1597 0001958 101.7981 258.3371 13.19725611146889
ONEWEB-0519             
1 54137U 22138AA  25307.54014000  .00000087  00000+0  18509-3 0  9997
2 54137  87.9244 349.8464 0001651  99.6700 260.4619 13.19725355147076
ONEWEB-0520             
1 54138U 22138AB  25306.36181769  .00000045  00000+0  79698-4 0  9995
2 54138  87.9246 350.0846 0002080 105.0129 255.1234 13.19726223146901
ONEWEB-0521             
1 54139U 22138AC  25306.16753868  .00000050  00000+0  93617-4 0  9992
2 54139  87.9241 350.1082 0001632  95.6839 264.4480 13.19726601146821
ONEWEB-0522             
1 54140U 22138AD  25307.51170257  .00000037  00000+0  59122-4 0  9997
2 54140  87.9242 349.8423 0001976 102.7242 257.4112 13.19727214147047
ONEWEB-0523             
1 54141U 22138AE  25307.72979279  .00000094  00000+0  20045-3 0  9996
2 54141  87.9181 319.4073 0001787  65.6919 294.4400 13.20771105149540
ONEWEB-0524             
1 54142U 22138AF  25306.43087766 -.00000035  00000+0 -11892-3 0  9992
2 54142  87.9186 319.6682 0002656  79.6619 280.4813 13.20770645149374
ONEWEB-0525             
1 54143U 22138AG  25306.16596025  .00000053  00000+0  10123-3 0  9990
2 54143  87.9241 350.1315 0002031 105.3683 254.7674 13.19726068146885
ONEWEB-0526             
1 54144U 22138AH  25306.42658301 -.00000008  00000+0 -53336-4 0  9992
2 54144  87.9245 350.0668 0001970  98.7246 261.4110 13.19726071146896
ONEWEB-0529             
1 54145U 22138AJ  25306.35392229 -.00000030  00000+0 -10821-3 0  9995
2 54145  87.9227 350.1146 0002052 102.4539 257.6823 13.19725782146907
ONEWEB-0531             
1 54146U 22138AK  25307.78029750 -.00000064  00000+0 -18981-3 0  9992
2 54146  87.9187 319.3897 0002084  66.9760 293.1593 13.20771554149551
ONEWEB-0535             
1 54147U 22138AL  25306.38709359  .00000032  00000+0  47096-4 0  9991
2 54147  87.9247 350.0698 0001679  86.6311 273.5014 13.19726332146920
ONEWEB-0536             
1 54148U 22138AM  25307.76767398  .00000143  00000+0  31902-3 0  9993
2 54148  87.9179 319.4385 0002331  66.7033 293.4346 13.20770596149546
