[{"OBJECT_NAME":"ONEWEB-0514","OBJECT_ID":"2022-138V","EPOCH":"2025-11-03T13:00:04.635648","MEAN_MOTION":13.19725596,"ECCENTRICITY":0.0001802,"INCLINATION":87.9238,"RA_OF_ASC_NODE":349.8577,"ARG_OF_PERICENTER":93.9689,"MEAN_ANOMALY":266.165,"EPHEMERIS_TYPE":0,"CLASSIFICATION_TYPE":"U","NORAD_CAT_ID":54132,"ELEMENT_SET_NO":999,"REV_AT_EPOCH":14706,"BSTAR":8.705e-5,"MEAN_MOTION_DOT":4.8e-7,"MEAN_MOTION_DDOT":0},{"OBJECT_NAME":"ONEWEB-0515","OBJECT_ID":"2022-138W","EPOCH":"2025-11-03T17:49:04.797696","MEAN_MOTION":13.20772227,"ECCENTRICITY":0.0002414,"INCLINATION":87.9193,"RA_OF_ASC_NODE":319.3833,"ARG_OF_PERICENTER":72.8474,"MEAN_ANOMALY":287.2924,"EPHEMERIS_TYPE":0,"CLASSIFICATION_TYPE":"U","NORAD_CAT_ID":54133,"ELEMENT_SET_NO":999,"REV_AT_EPOCH":14954,"BSTAR":0.00030455,"MEAN_MOTION_DOT":1.37e-6,"MEAN_MOTION_DDOT":0},{"OBJECT_NAME":"ONEWEB-0516","OBJECT_ID":"2022-138X","EPOCH":"2025-11-02T03:38:30.604704","MEAN_MOTION":13.19726199,"ECCENTRICITY":0.00019986,"INCLINATION":87.9225,"RA_OF_ASC_NODE":350.1573,"ARG_OF_PERICENTER":98.9288,"MEAN_ANOMALY":261.2071,"EPHEMERIS_TYPE":0,"CLASSIFICATION_TYPE":"U","NORAD_CAT_ID":54134,"ELEMENT_SET_NO":999,"REV_AT_EPOCH":14688,"BSTAR":-6.8091448e-5,"MEAN_MOTION_DOT":-1.4e-7,"MEAN_MOTION_DDOT":0},{"OBJECT_NAME":"ONEWEB-0517","OBJECT_ID":"2022-138Y","EPOCH":"2025-11-02T08:36:28.183392","MEAN_MOTION":13.19725446,"ECCENTRICITY":0.0001592,"INCLINATION":87.9249,"RA_OF_ASC_NODE":350.0897,"ARG_OF_PERICENTER":98.8328,"MEAN_ANOMALY":261.2985,"EPHEMERIS_TYPE":0,"CLASSIFICATION_TYPE":"U","NORAD_CAT_ID":54135,"ELEMENT_SET_NO":999,"REV_AT_EPOCH":14691,"BSTAR":6.857e-5,"MEAN_MOTION_DOT":4.0e-7,"MEAN_MOTION_DDOT":0},{"OBJECT_NAME":"ONEWEB-0518","OBJECT_ID":"2022-138Z","EPOCH":"2025-11-02T03:36:14.289696","MEAN_MOTION":13.19725611,"ECCENTRICITY":0.00019587,"INCLINATION":87.9228,"RA_OF_ASC_NODE":350.1597,"ARG_OF_PERICENTER":101.7981,"MEAN_ANOMALY":258.3371,"EPHEMERIS_TYPE":0,"CLASSIFICATION_TYPE":"U","NORAD_CAT_ID":54136,"ELEMENT_SET_NO":999,"REV_AT_EPOCH":14688,"BSTAR":0.0001268498,"MEAN_MOTION_DOT":6.4e-7,"MEAN_MOTION_DDOT":0},{"OBJECT_NAME":"ONEWEB-0519","OBJECT_ID":"2022-138AA","EPOCH":"2025-11-03T12:57:48.096000","MEAN_MOTION":13.19725355,"ECCENTRICITY":0.0001651,"INCLINATION":87.9244,"RA_OF_ASC_NODE":349.8464,"ARG_OF_PERICENTER":99.67,"MEAN_ANOMALY":260.4619,"EPHEMERIS_TYPE":0,"CLASSIFICATION_TYPE":"U","NORAD_CAT_ID":54137,"ELEMENT_SET_NO":999,"REV_AT_EPOCH":14707,"BSTAR":0.00018509,"MEAN_MOTION_DOT":8.7e-7,"MEAN_MOTION_DDOT":0},{"OBJECT_NAME":"ONEWEB-0520","OBJECT_ID":"2022-138AB","EPOCH":"2025-11-02T08:41:01.048416","MEAN_MOTION":13.19726223,"ECCENTRICITY":0.000208,"INCLINATION":87.9246,"RA_OF_ASC_NODE":350.0846,"ARG_OF_PERICENTER":105.0129,"MEAN_ANOMALY":255.1234,"EPHEMERIS_TYPE":0,"CLASSIFICATION_TYPE":"U","NORAD_CAT_ID":54138,"ELEMENT_SET_NO":999,"REV_AT_EPOCH":14690,"BSTAR":7.9698e-5,"MEAN_MOTION_DOT":4.5e-7,"MEAN_MOTION_DDOT":0},{"OBJECT_NAME":"ONEWEB-0521","OBJECT_ID":"2022-138AC","EPOCH":"2025-11-02T04:01:15.341952","MEAN_MOTION":13.19726601,"ECCENTRICITY":0.00016326,"INCLINATION":87.9241,"RA_OF_ASC_NODE":350.1082,"ARG_OF_PERICENTER":95.6839,"MEAN_ANOMALY":264.448,"EPHEMERIS_TYPE":0,"CLASSIFICATION_TYPE":"U","NORAD_CAT_ID":54139,"ELEMENT_SET_NO":999,"REV_AT_EPOCH":14682,"BSTAR":9.3617406e-5,"MEAN_MOTION_DOT":5.0e-7,"MEAN_MOTION_DDOT":0},{"OBJECT_NAME":"ONEWEB-0522","OBJECT_ID":"2022-138AD","EPOCH":"2025-11-03T12:16:51.102048","MEAN_MOTION":13.19727214,"ECCENTRICITY":0.0001976,"INCLINATION":87.9242,"RA_OF_ASC_NODE":349.8423,"ARG_OF_PERICENTER":102.7242,"MEAN_ANOMALY":257.4112,"EPHEMERIS_TYPE":0,"CLASSIFICATION_TYPE":"U","NORAD_CAT_ID":54140,"ELEMENT_SET_NO":999,"REV_AT_EPOCH":14704,"BSTAR":5.9122e-5,"MEAN_MOTION_DOT":3.7e-7,"MEAN_MOTION_DDOT":0},{"OBJECT_NAME":"ONEWEB-0523","OBJECT_ID":"2022-138AE","EPOCH":"2025-11-03T17:30:54.097056","MEAN_MOTION":13.20771105,"ECCENTRICITY":0.0001787,"INCLINATION":87.9181,"RA_OF_ASC_NODE":319.4073,"ARG_OF_PERICENTER":65.6919,"MEAN_ANOMALY":294.44,"EPHEMERIS_TYPE":0,"CLASSIFICATION_TYPE":"U","NORAD_CAT_ID":54141,"ELEMENT_SET_NO":999,"REV_AT_EPOCH":14954,"BSTAR":0.00020045,"MEAN_MOTION_DOT":9.4e-7,"MEAN_MOTION_DDOT":0},{"OBJECT_NAME":"ONEWEB-0524","OBJECT_ID":"2022-138AF","EPOCH":"2025-11-02T10:20:27.829824","MEAN_MOTION":13.20770645,"ECCENTRICITY":0.0002656,"INCLINATION":87.9186,"RA_OF_ASC_NODE":319.6682,"ARG_OF_PERICENTER":79.6619,"MEAN_ANOMALY":280.4813,"EPHEMERIS_TYPE":0,"CLASSIFICATION_TYPE":"U","NORAD_CAT_ID":54142,"ELEMENT_SET_NO":999,"REV_AT_EPOCH":14937,"BSTAR":-0.00011892,"MEAN_MOTION_DOT":-3.5e-7,"MEAN_MOTION_DDOT":0},{"OBJECT_NAME":"ONEWEB-0525","OBJECT_ID":"2022-138AG","EPOCH":"2025-11-02T03:58:58.965600","MEAN_MOTION":13.19726068,"ECCENTRICITY":0.00020319,"INCLINATION":87.9241,"RA_OF_ASC_NODE":350.1315,"ARG_OF_PERICENTER":105.3683,"MEAN_ANOMALY":254.7674,"EPHEMERIS_TYPE":0,"CLASSIFICATION_TYPE":"U","NORAD_CAT_ID":54143,"ELEMENT_SET_NO":999,"REV_AT_EPOCH":14688,"BSTAR":0.00010123403,"MEAN_MOTION_DOT":5.3e-7,"MEAN_MOTION_DDOT":0},{"OBJECT_NAME":"ONEWEB-0526","OBJECT_ID":"2022-138AH","EPOCH":"2025-11-02T10:14:16.772064","MEAN_MOTION":13.19726071,"ECCENTRICITY":0.000197,"INCLINATION":87.9245,"RA_OF_ASC_NODE":350.0668,"ARG_OF_PERICENTER":98.7246,"MEAN_ANOMALY":261.411,"EPHEMERIS_TYPE":0,"CLASSIFICATION_TYPE":"U","NORAD_CAT_ID":54144,"ELEMENT_SET_NO":999,"REV_AT_EPOCH":14689,"BSTAR":-5.3336e-5,"MEAN_MOTION_DOT":-8.0e-8,"MEAN_MOTION_DDOT":0},{"OBJECT_NAME":"ONEWEB-0529","OBJECT_ID":"2022-138AJ","EPOCH":"2025-11-02T08:29:38.885856","MEAN_MOTION":13.19725782,"ECCENTRICITY":0.0002052,"INCLINATION":87.9227,"RA_OF_ASC_NODE":350.1146,"ARG_OF_PERICENTER":102.4539,"MEAN_ANOMALY":257.6823,"EPHEMERIS_TYPE":0,"CLASSIFICATION_TYPE":"U","NORAD_CAT_ID":54145,"ELEMENT_SET_NO":999,"REV_AT_EPOCH":14690,"BSTAR":-0.00010821,"MEAN_MOTION_DOT":-3.0e-7,"MEAN_MOTION_DDOT":0},{"OBJECT_NAME":"ONEWEB-0531","OBJECT_ID":"2022-138AK","EPOCH":"2025-11-03T18:43:37.704000","MEAN_MOTION":13.20771554,"ECCENTRICITY":0.0002084,"INCLINATION":87.9187,"RA_OF_ASC_NODE":319.3897,"ARG_OF_PERICENTER":66.976,"MEAN_ANOMALY":293.1593,"EPHEMERIS_TYPE":0,"CLASSIFICATION_TYPE":"U","NORAD_CAT_ID":54146,"ELEMENT_SET_NO":999,"REV_AT_EPOCH":14955,"BSTAR":-0.00018981,"MEAN_MOTION_DOT":-6.4e-7,"MEAN_MOTION_DDOT":0},{"OBJECT_NAME":"ONEWEB-0535","OBJECT_ID":"2022-138AL","EPOCH":"2025-11-02T09:17:24.886176","MEAN_MOTION":13.19726332,"ECCENTRICITY":0.0001679,"INCLINATION":87.9247,"RA_OF_ASC_NODE":350.0698,"ARG_OF_PERICENTER":86.6311,"MEAN_ANOMALY":273.5014,"EPHEMERIS_TYPE":0,"CLASSIFICATION_TYPE":"U","NORAD_CAT_ID":54147,"ELEMENT_SET_NO":999,"REV_AT_EPOCH":14692,"BSTAR":4.7096e-5,"MEAN_MOTION_DOT":3.2e-7,"MEAN_MOTION_DDOT":0},{"OBJECT_NAME":"ONEWEB-0536","OBJECT_ID":"2022-138AM","EPOCH":"2025-11-03T18:25:27.031872","MEAN_MOTION":13.20770596,"ECCENTRICITY":0.0002331,"INCLINATION":87.9179,"RA_OF_ASC_NODE":319.4385,"ARG_OF_PERICENTER":66.7033,"MEAN_ANOMALY":293.4346,"EPHEMERIS_TYPE":0,"CLASSIFICATION_TYPE":"U","NORAD_CAT_ID":54148,"ELEMENT_SET_NO":999,"REV_AT_EPOCH":14954,"BSTAR":0.00031902,"MEAN_MOTION_DOT":1.43e-6,"MEAN_MOTION_DDOT":0}]
